{
  "type": "FeatureCollection",
  "features": [
    {
      "type": "Feature",
      "properties": {
        "norad_id": 37562,
        "name": "IRIDIUM 33 DEB",
        "group": "iridium-33-debris",
        "lat": 77.20794309039833,
        "lon": 59.164025137424744,
        "alt_km": 680.1976128604829,
        "timestamp": "2025-12-14T05:42:18.847494+00:00",
        "meta_object_name": "IRIDIUM 33 DEB",
        "meta_object_id": "1997-051XX",
        "meta_epoch": "2025-12-12T22:34:29.180064",
        "meta_mean_motion": 14.56479735,
        "meta_eccentricity": 0.00267072,
        "meta_inclination": 86.3742,
        "meta_ra_of_asc_node": 43.5127,
        "meta_arg_of_pericenter": 107.2211,
        "meta_mean_anomaly": 13.868,
        "meta_ephemeris_type": 0,
        "meta_classification_type": "U",
        "meta_norad_cat_id": 37562,
        "meta_element_set_no": 999,
        "meta_rev_at_epoch": 86331,
        "meta_bstar": 0.0015437368,
        "meta_mean_motion_dot": 6.916e-05,
        "meta_mean_motion_ddot": 0,
        "tle_line1": "1 37562U 97051XX  25346.94061551  .00006916  00000+0  15437-2 0  9999",
        "tle_line2": "2 37562  86.3742  43.5127 0026707 107.2211  13.8680 14.56479735863311"
      },
      "geometry": {
        "type": "Point",
        "coordinates": [
          59.164025137424744,
          77.20794309039833
        ]
      }
    },
    {
      "type": "Feature",
      "properties": {
        "norad_id": 37565,
        "name": "IRIDIUM 33 DEB",
        "group": "iridium-33-debris",
        "lat": -12.121174470493616,
        "lon": -170.2889805193549,
        "alt_km": 729.2576053043485,
        "timestamp": "2025-12-14T05:42:18.847504+00:00",
        "meta_object_name": "IRIDIUM 33 DEB",
        "meta_object_id": "1997-051YA",
        "meta_epoch": "2025-12-13T08:58:15.147552",
        "meta_mean_motion": 14.51522356,
        "meta_eccentricity": 0.00152671,
        "meta_inclination": 86.3495,
        "meta_ra_of_asc_node": 9.3016,
        "meta_arg_of_pericenter": 82.6927,
        "meta_mean_anomaly": 277.6013,
        "meta_ephemeris_type": 0,
        "meta_classification_type": "U",
        "meta_norad_cat_id": 37565,
        "meta_element_set_no": 999,
        "meta_rev_at_epoch": 65846,
        "meta_bstar": 0.0008528006,
        "meta_mean_motion_dot": 3.434e-05,
        "meta_mean_motion_ddot": 0,
        "tle_line1": "1 37565U 97051YA  25347.37378643  .00003434  00000+0  85280-3 0  9999",
        "tle_line2": "2 37565  86.3495   9.3016 0015267  82.6927 277.6013 14.51522356658466"
      },
      "geometry": {
        "type": "Point",
        "coordinates": [
          -170.2889805193549,
          -12.121174470493616
        ]
      }
    },
    {
      "type": "Feature",
      "properties": {
        "norad_id": 38017,
        "name": "IRIDIUM 33 DEB",
        "group": "iridium-33-debris",
        "lat": -85.07539073294937,
        "lon": 33.51484507222279,
        "alt_km": 800.3853478476467,
        "timestamp": "2025-12-14T05:42:18.847515+00:00",
        "meta_object_name": "IRIDIUM 33 DEB",
        "meta_object_id": "1997-051YD",
        "meta_epoch": "2025-12-09T11:46:33.949344",
        "meta_mean_motion": 14.48798991,
        "meta_eccentricity": 0.0092342,
        "meta_inclination": 86.3421,
        "meta_ra_of_asc_node": 167.6378,
        "meta_arg_of_pericenter": 113.8595,
        "meta_mean_anomaly": 247.2321,
        "meta_ephemeris_type": 0,
        "meta_classification_type": "U",
        "meta_norad_cat_id": 38017,
        "meta_element_set_no": 999,
        "meta_rev_at_epoch": 61355,
        "meta_bstar": 0.0067532519,
        "meta_mean_motion_dot": 0.00027013,
        "meta_mean_motion_ddot": 0,
        "tle_line1": "1 38017U 97051YD  25343.49067071  .00027013  00000+0  67533-2 0  9990",
        "tle_line2": "2 38017  86.3421 167.6378 0092342 113.8595 247.2321 14.48798991613556"
      },
      "geometry": {
        "type": "Point",
        "coordinates": [
          33.51484507222279,
          -85.07539073294937
        ]
      }
    },
    {
      "type": "Feature",
      "properties": {
        "norad_id": 38022,
        "name": "IRIDIUM 33 DEB",
        "group": "iridium-33-debris",
        "lat": 6.255005715456687,
        "lon": 16.1970019773163,
        "alt_km": 730.6798300147548,
        "timestamp": "2025-12-14T05:42:18.847525+00:00",
        "meta_object_name": "IRIDIUM 33 DEB",
        "meta_object_id": "1997-051YJ",
        "meta_epoch": "2025-12-12T08:41:14.041248",
        "meta_mean_motion": 14.41246239,
        "meta_eccentricity": 0.00465932,
        "meta_inclination": 86.2691,
        "meta_ra_of_asc_node": 16.6083,
        "meta_arg_of_pericenter": 51.6762,
        "meta_mean_anomaly": 308.8611,
        "meta_ephemeris_type": 0,
        "meta_classification_type": "U",
        "meta_norad_cat_id": 38022,
        "meta_element_set_no": 999,
        "meta_rev_at_epoch": 69188,
        "meta_bstar": 0.001535131,
        "meta_mean_motion_dot": 5.042e-05,
        "meta_mean_motion_ddot": 0,
        "tle_line1": "1 38022U 97051YJ  25346.36196807  .00005042  00000+0  15351-2 0  9994",
        "tle_line2": "2 38022  86.2691  16.6083 0046593  51.6762 308.8611 14.41246239691882"
      },
      "geometry": {
        "type": "Point",
        "coordinates": [
          16.1970019773163,
          6.255005715456687
        ]
      }
    },
    {
      "type": "Feature",
      "properties": {
        "norad_id": 38028,
        "name": "IRIDIUM 33 DEB",
        "group": "iridium-33-debris",
        "lat": 2.723822050616662,
        "lon": 179.44890460395712,
        "alt_km": 730.6286090178592,
        "timestamp": "2025-12-14T05:42:18.847535+00:00",
        "meta_object_name": "IRIDIUM 33 DEB",
        "meta_object_id": "1997-051YQ",
        "meta_epoch": "2025-12-13T07:18:12.945600",
        "meta_mean_motion": 14.4618008,
        "meta_eccentricity": 0.00302038,
        "meta_inclination": 86.3305,
        "meta_ra_of_asc_node": 0.0289,
        "meta_arg_of_pericenter": 118.4875,
        "meta_mean_anomaly": 241.9376,
        "meta_ephemeris_type": 0,
        "meta_classification_type": "U",
        "meta_norad_cat_id": 38028,
        "meta_element_set_no": 999,
        "meta_rev_at_epoch": 65503,
        "meta_bstar": 0.00033695006,
        "meta_mean_motion_dot": 1.231e-05,
        "meta_mean_motion_ddot": 0,
        "tle_line1": "1 38028U 97051YQ  25347.30431650  .00001231  00000+0  33695-3 0  9991",
        "tle_line2": "2 38028  86.3305   0.0289 0030203 118.4875 241.9376 14.46180080655032"
      },
      "geometry": {
        "type": "Point",
        "coordinates": [
          179.44890460395712,
          2.723822050616662
        ]
      }
    },
    {
      "type": "Feature",
      "properties": {
        "norad_id": 38228,
        "name": "IRIDIUM 33 DEB",
        "group": "iridium-33-debris",
        "lat": 8.860823140500536,
        "lon": 48.4119642570623,
        "alt_km": 848.741219595966,
        "timestamp": "2025-12-14T05:42:18.847563+00:00",
        "meta_object_name": "IRIDIUM 33 DEB",
        "meta_object_id": "1997-051ZC",
        "meta_epoch": "2025-12-13T11:13:27.811200",
        "meta_mean_motion": 14.27268948,
        "meta_eccentricity": 0.00643391,
        "meta_inclination": 86.2949,
        "meta_ra_of_asc_node": 48.1604,
        "meta_arg_of_pericenter": 187.0426,
        "meta_mean_anomaly": 187.919,
        "meta_ephemeris_type": 0,
        "meta_classification_type": "U",
        "meta_norad_cat_id": 38228,
        "meta_element_set_no": 999,
        "meta_rev_at_epoch": 84792,
        "meta_bstar": 0.00045930818,
        "meta_mean_motion_dot": 1.167e-05,
        "meta_mean_motion_ddot": 0,
        "tle_line1": "1 38228U 97051ZC  25347.46768300  .00001167  00000+0  45931-3 0  9999",
        "tle_line2": "2 38228  86.2949  48.1604 0064339 187.0426 187.9190 14.27268948847925"
      },
      "geometry": {
        "type": "Point",
        "coordinates": [
          48.4119642570623,
          8.860823140500536
        ]
      }
    },
    {
      "type": "Feature",
      "properties": {
        "norad_id": 38241,
        "name": "IRIDIUM 33 DEB",
        "group": "iridium-33-debris",
        "lat": 78.69283073327233,
        "lon": 8.698039315252194,
        "alt_km": 698.5733947833487,
        "timestamp": "2025-12-14T05:42:18.847576+00:00",
        "meta_object_name": "IRIDIUM 33 DEB",
        "meta_object_id": "1997-051ZR",
        "meta_epoch": "2025-12-13T06:13:58.226016",
        "meta_mean_motion": 14.54873749,
        "meta_eccentricity": 0.00056326,
        "meta_inclination": 86.3232,
        "meta_ra_of_asc_node": 350.3699,
        "meta_arg_of_pericenter": 72.2147,
        "meta_mean_anomaly": 287.9674,
        "meta_ephemeris_type": 0,
        "meta_classification_type": "U",
        "meta_norad_cat_id": 38241,
        "meta_element_set_no": 999,
        "meta_rev_at_epoch": 60208,
        "meta_bstar": 0.0012492013,
        "meta_mean_motion_dot": 5.385e-05,
        "meta_mean_motion_ddot": 0,
        "tle_line1": "1 38241U 97051ZR  25347.25970169  .00005385  00000+0  12492-2 0  9990",
        "tle_line2": "2 38241  86.3232 350.3699 0005632  72.2147 287.9674 14.54873749602089"
      },
      "geometry": {
        "type": "Point",
        "coordinates": [
          8.698039315252194,
          78.69283073327233
        ]
      }
    }
  ]
}